{
  "type": "FeatureCollection",
  "features": [
    {
      "type": "Feature",
      "properties": {
        "norad_id": 31307,
        "name": "GALAXY 17 (G-17)",
        "group": "intelsat",
        "lat": -0.5421225443835708,
        "lon": -85.61688701347244,
        "alt_km": 35764.74537859617,
        "timestamp": "2025-12-07T18:50:16.391720+00:00",
        "meta_object_name": "GALAXY 17 (G-17)",
        "meta_object_id": "2007-016B",
        "meta_epoch": "2025-12-07T07:30:03.174336",
        "meta_mean_motion": 1.00270009,
        "meta_eccentricity": 0.0006037,
        "meta_inclination": 2.4859,
        "meta_ra_of_asc_node": 82.3457,
        "meta_arg_of_pericenter": 161.0096,
        "meta_mean_anomaly": 220.4883,
        "meta_ephemeris_type": 0,
        "meta_classification_type": "U",
        "meta_norad_cat_id": 31307,
        "meta_element_set_no": 999,
        "meta_rev_at_epoch": 6788,
        "meta_bstar": 0,
        "meta_mean_motion_dot": -2.03e-06,
        "meta_mean_motion_ddot": 0,
        "tle_line1": "1 31307U 07016B   25341.31253674 -.00000203  00000+0  00000+0 0  9998",
        "tle_line2": "2 31307   2.4859  82.3457 0006037 161.0096 220.4883  1.00270009 67887"
      },
      "geometry": {
        "type": "Point",
        "coordinates": [
          -85.61688701347244,
          -0.5421225443835708
        ]
      }
    },
    {
      "type": "Feature",
      "properties": {
        "norad_id": 31862,
        "name": "DIRECTV 10",
        "group": "intelsat",
        "lat": 0.00848064251902467,
        "lon": -103.42696942212235,
        "alt_km": 35785.27280813957,
        "timestamp": "2025-12-07T18:50:16.391732+00:00",
        "meta_object_name": "DIRECTV 10",
        "meta_object_id": "2007-032A",
        "meta_epoch": "2025-12-07T07:18:26.373888",
        "meta_mean_motion": 1.00269963,
        "meta_eccentricity": 3.131e-05,
        "meta_inclination": 0.0034,
        "meta_ra_of_asc_node": 221.9555,
        "meta_arg_of_pericenter": 33.2255,
        "meta_mean_anomaly": 187.97,
        "meta_ephemeris_type": 0,
        "meta_classification_type": "U",
        "meta_norad_cat_id": 31862,
        "meta_element_set_no": 999,
        "meta_rev_at_epoch": 4366,
        "meta_bstar": 0,
        "meta_mean_motion_dot": -9.8e-07,
        "meta_mean_motion_ddot": 0,
        "tle_line1": "1 31862U 07032A   25341.30447192 -.00000098  00000+0  00000+0 0  9993",
        "tle_line2": "2 31862   0.0034 221.9555 0000313  33.2255 187.9700  1.00269963 43662"
      },
      "geometry": {
        "type": "Point",
        "coordinates": [
          -103.42696942212235,
          0.00848064251902467
        ]
      }
    },
    {
      "type": "Feature",
      "properties": {
        "norad_id": 32253,
        "name": "INTELSAT 11 (IS-11)",
        "group": "intelsat",
        "lat": 0.7253979915121478,
        "lon": -113.10497847813494,
        "alt_km": 36093.395545508516,
        "timestamp": "2025-12-07T18:50:16.391744+00:00",
        "meta_object_name": "INTELSAT 11 (IS-11)",
        "meta_object_id": "2007-044B",
        "meta_epoch": "2025-12-07T07:14:23.481888",
        "meta_mean_motion": 0.99047299,
        "meta_eccentricity": 0.00092322,
        "meta_inclination": 3.0656,
        "meta_ra_of_asc_node": 81.0352,
        "meta_arg_of_pericenter": 163.5456,
        "meta_mean_anomaly": 189.9763,
        "meta_ephemeris_type": 0,
        "meta_classification_type": "U",
        "meta_norad_cat_id": 32253,
        "meta_element_set_no": 999,
        "meta_rev_at_epoch": 6654,
        "meta_bstar": 0,
        "meta_mean_motion_dot": 5.6e-07,
        "meta_mean_motion_ddot": 0,
        "tle_line1": "1 32253U 07044B   25341.30166067  .00000056  00000+0  00000+0 0  9993",
        "tle_line2": "2 32253   3.0656  81.0352 0009232 163.5456 189.9763  0.99047299 66545"
      },
      "geometry": {
        "type": "Point",
        "coordinates": [
          -113.10497847813494,
          0.7253979915121478
        ]
      }
    },
    {
      "type": "Feature",
      "properties": {
        "norad_id": 32388,
        "name": "HORIZONS-2",
        "group": "intelsat",
        "lat": -0.83048181221678,
        "lon": -74.4076274718282,
        "alt_km": 35765.96950105092,
        "timestamp": "2025-12-07T18:50:16.391756+00:00",
        "meta_object_name": "HORIZONS-2",
        "meta_object_id": "2007-063B",
        "meta_epoch": "2025-12-07T07:56:06.896832",
        "meta_mean_motion": 1.00270967,
        "meta_eccentricity": 0.00050796,
        "meta_inclination": 2.107,
        "meta_ra_of_asc_node": 83.0174,
        "meta_arg_of_pericenter": 184.9695,
        "meta_mean_anomaly": 213.6188,
        "meta_ephemeris_type": 0,
        "meta_classification_type": "U",
        "meta_norad_cat_id": 32388,
        "meta_element_set_no": 999,
        "meta_rev_at_epoch": 6589,
        "meta_bstar": 0,
        "meta_mean_motion_dot": -2.5e-06,
        "meta_mean_motion_ddot": 0,
        "tle_line1": "1 32388U 07063B   25341.33063538 -.00000250  00000+0  00000+0 0  9992",
        "tle_line2": "2 32388   2.1070  83.0174 0005079 184.9695 213.6188  1.00270967 65891"
      },
      "geometry": {
        "type": "Point",
        "coordinates": [
          -74.4076274718282,
          -0.83048181221678
        ]
      }
    },
    {
      "type": "Feature",
      "properties": {
        "norad_id": 32729,
        "name": "DIRECTV 11",
        "group": "intelsat",
        "lat": 0.0024091548990353767,
        "lon": -99.8110010995485,
        "alt_km": 35783.87585827872,
        "timestamp": "2025-12-07T18:50:16.391767+00:00",
        "meta_object_name": "DIRECTV 11",
        "meta_object_id": "2008-013A",
        "meta_epoch": "2025-12-06T11:28:54.626592",
        "meta_mean_motion": 1.00274292,
        "meta_eccentricity": 5.186e-05,
        "meta_inclination": 0.0204,
        "meta_ra_of_asc_node": 155.7645,
        "meta_arg_of_pericenter": 58.6641,
        "meta_mean_anomaly": 294.1227,
        "meta_ephemeris_type": 0,
        "meta_classification_type": "U",
        "meta_norad_cat_id": 32729,
        "meta_element_set_no": 999,
        "meta_rev_at_epoch": 4366,
        "meta_bstar": 0,
        "meta_mean_motion_dot": -1.19e-06,
        "meta_mean_motion_ddot": 0,
        "tle_line1": "1 32729U 08013A   25340.47841003 -.00000119  00000+0  00000+0 0  9996",
        "tle_line2": "2 32729   0.0204 155.7645 0000518  58.6641 294.1227  1.00274292 43661"
      },
      "geometry": {
        "type": "Point",
        "coordinates": [
          -99.8110010995485,
          0.0024091548990353767
        ]
      }
    },
    {
      "type": "Feature",
      "properties": {
        "norad_id": 32951,
        "name": "GALAXY 18 (G-18)",
        "group": "intelsat",
        "lat": -0.015704789780105945,
        "lon": -123.66509714515882,
        "alt_km": 35773.61021933703,
        "timestamp": "2025-12-07T18:50:16.391780+00:00",
        "meta_object_name": "GALAXY 18 (G-18)",
        "meta_object_id": "2008-024A",
        "meta_epoch": "2025-12-07T08:07:14.505312",
        "meta_mean_motion": 1.00270181,
        "meta_eccentricity": 0.0003321,
        "meta_inclination": 0.021,
        "meta_ra_of_asc_node": 57.0704,
        "meta_arg_of_pericenter": 202.8422,
        "meta_mean_anomaly": 175.2489,
        "meta_ephemeris_type": 0,
        "meta_classification_type": "U",
        "meta_norad_cat_id": 32951,
        "meta_element_set_no": 999,
        "meta_rev_at_epoch": 4392,
        "meta_bstar": 0,
        "meta_mean_motion_dot": 3e-07,
        "meta_mean_motion_ddot": 0,
        "tle_line1": "1 32951U 08024A   25341.33836233  .00000030  00000+0  00000+0 0  9991",
        "tle_line2": "2 32951   0.0210  57.0704 0003321 202.8422 175.2489  1.00270181 43921"
      },
      "geometry": {
        "type": "Point",
        "coordinates": [
          -123.66509714515882,
          -0.015704789780105945
        ]
      }
    },
    {
      "type": "Feature",
      "properties": {
        "norad_id": 33153,
        "name": "INTELSAT 25 (IS-25)",
        "group": "intelsat",
        "lat": -2.017376264644443,
        "lon": -32.08539310351502,
        "alt_km": 35776.326283846945,
        "timestamp": "2025-12-07T18:50:16.391791+00:00",
        "meta_object_name": "INTELSAT 25 (IS-25)",
        "meta_object_id": "2008-034A",
        "meta_epoch": "2025-12-07T06:38:10.184928",
        "meta_mean_motion": 1.00270614,
        "meta_eccentricity": 0.00054455,
        "meta_inclination": 2.2131,
        "meta_ra_of_asc_node": 82.7068,
        "meta_arg_of_pericenter": 182.0154,
        "meta_mean_anomaly": 239.6308,
        "meta_ephemeris_type": 0,
        "meta_classification_type": "U",
        "meta_norad_cat_id": 33153,
        "meta_element_set_no": 999,
        "meta_rev_at_epoch": 6377,
        "meta_bstar": 0,
        "meta_mean_motion_dot": -2.2e-06,
        "meta_mean_motion_ddot": 0,
        "tle_line1": "1 33153U 08034A   25341.27650677 -.00000220  00000+0  00000+0 0  9998",
        "tle_line2": "2 33153   2.2131  82.7068 0005445 182.0154 239.6308  1.00270614 63771"
      },
      "geometry": {
        "type": "Point",
        "coordinates": [
          -32.08539310351502,
          -2.017376264644443
        ]
      }
    }
  ]
}